COSMOS 2576             
1 59773U 24092A   26068.82603826  .00015211  00000+0  56283-3 0  9991
2 59773  97.4253 186.0053 0005946 159.7731 200.3745 15.27760963101271
STARLINK-35996          
1 66800U 25278K   26068.43245785  .00030162  00000+0  11011-2 0  9991
2 66800  42.9976 115.4772 0001029 262.9812  97.0923 15.27581683 15178
